<?xml version="1.0" encoding="UTF-8"?>
<kml xmlns="http://www.opengis.net/kml/2.2" xmlns:gx="http://www.google.com/kml/ext/2.2">
    <Document id="1">
        <Folder id="2">
            <Style id="5">
                <LineStyle id="6">
                    <color>ff9fdd62</color>
                    <colorMode>normal</colorMode>
                    <width>3</width>
                </LineStyle>
            </Style>
            <name>Flight 584</name>
            <Placemark id="4">
                <name>Turn 584</name>
                <styleUrl>#5</styleUrl>
                <LineString id="3">
                    <altitudeMode>absolute</altitudeMode>
                    <coordinates>2.0954244,41.28952741,8.413195879267248e-05 2.09270665,41.28852998,4.996638904960776e-05 2.08966447,41.2875278,7.619986324404105 2.08621687,41.28632523,-0.00011293497297950834 2.08253982,41.28503979,-0.0002518436020736376 2.07857721,41.28387884,45.719552373431505 2.07490707,41.28257176,99.05934433420471 2.07122942,41.28132778,160.01909879801252 2.06762848,41.28005716,220.97882733100514 2.06439515,41.27834742,274.3185850377329 2.0616925,41.27613112,320.0384099804206 2.05964921,41.27352631,358.13833025893206 2.05827802,41.27058922,396.2383623566916 2.05747202,41.26755931,426.71848850598064 2.0571076,41.26449034,464.8186947349895 2.0566336,41.26114987,495.2989338239104 2.05636695,41.25785773,525.7792207744292 2.05608922,41.25440259,548.6395493355674 2.05612276,41.25102615,579.1199377192255 2.0561183,41.24743165,609.6003756203776 2.05622586,41.24377326,632.4608671545889 2.05629389,41.23997334,655.3214056386346 2.05645243,41.23612304,678.1819978655832 2.0566011,41.23219271,708.6626372313697 2.05672527,41.22817051,731.5233256751196 2.05685298,41.22411408,746.7640590207801 2.05683068,41.21979037,762.0048634561579 2.05681602,41.21543387,784.8657203147001 2.05670585,41.21093645,822.9666406176215 2.0566138,41.20645983,861.0676068561676 2.05645907,41.20182046,906.7886512223815 2.05636703,41.19726003,960.1297359604437 2.056226,41.19267282,1028.7108713930797 2.05611225,41.18802713,1097.2920763359105 2.0559462,41.18347046,1158.2533010209722 2.05479523,41.17899925,1211.5944194934025 2.05317428,41.17450289,1272.5555249281924 2.05138362,41.17024237,1325.8965734750582 2.04872682,41.16597761,1386.8575278241763 2.04599057,41.16187169,1447.8184405860134 2.04316707,41.1577224,1508.7793726923544 2.04021162,41.1536715,1562.120265603104 2.03725152,41.14948994,1615.4612192826555 2.03439195,41.14535042,1661.1821936338986 2.03157548,41.14114153,1714.5232212017922 2.02876404,41.13685876,1760.2442984967786 2.02601782,41.13256842,1813.5854148672133</coordinates>
                </LineString>
            </Placemark>
        </Folder>
        <Folder id="7">
            <Style id="10">
                <LineStyle id="11">
                    <color>fff54981</color>
                    <colorMode>normal</colorMode>
                    <width>3</width>
                </LineStyle>
            </Style>
            <name>Flight 585</name>
            <Placemark id="9">
                <name>Turn 585</name>
                <styleUrl>#10</styleUrl>
                <LineString id="8">
                    <altitudeMode>absolute</altitudeMode>
                    <coordinates>2.09605664,41.28981828,8.789729608233336e-05 2.09341752,41.28882595,5.9716405395246e-05 2.09049661,41.28788606,3.3788384088277673e-06 2.08713014,41.28668776,-8.520949904596967e-05 2.08352951,41.28541376,-0.00021207798951018817 2.0799242,41.28414151,45.71962919916427 2.07625153,41.2829059,99.05943118655689 2.07258301,41.28163051,152.39920063446894 2.06895877,41.28035423,198.11893968685968 2.0654561,41.27878828,251.45867307302908 2.0627902,41.27643644,297.1785156847683 2.06040094,41.27394605,335.2783924835534 2.0590233,41.27101659,373.3784232728035 2.05797933,41.26788639,396.23852589135265 2.05726139,41.2646074,419.0987028639019 2.05641216,41.26107991,449.5789102850598 2.05570396,41.25771032,472.4391474070819 2.05469357,41.25409487,502.9193967768732 2.05358728,41.25041804,525.7796681147557 2.05244787,41.2467286,556.2599652381117 2.05136927,41.24303843,579.1202996013891 2.05009383,41.2390762,586.7406731119898 2.04883895,41.23498532,601.9811026527675 2.04750382,41.23065923,624.841594269866 2.04633956,41.22636531,655.3221470086793 2.0450432,41.22177837,685.8027731133647 2.04383076,41.21710688,716.2834751934855 2.04269532,41.21243316,754.3842388209378 2.04158139,41.20763184,800.1050829732793 2.04041111,41.20265908,853.4460088528521 2.0390246,41.19770799,906.7869459511343 2.03699543,41.19292288,967.7477756958085 2.03342904,41.1886042,1036.3282278766546 2.02995744,41.18447848,1112.5286548484044 2.02549222,41.18064292,1188.72879058999 2.02044632,41.17732097,1249.6886192206036 2.01514933,41.17413409,1318.2682994951967 2.00975307,41.17101612,1379.2278767450796 2.00428402,41.16781427,1440.1874007037486 1.99890747,41.16476227,1508.7668430235544 1.9934,41.1615713,1577.346230961572 1.98786176,41.15842275,1645.925532631174 1.98232438,41.15521683,1706.8847906776812 1.97685276,41.15201097,1775.4640097352449</coordinates>
                </LineString>
            </Placemark>
        </Folder>
        <Folder id="12">
            <Style id="15">
                <LineStyle id="16">
                    <color>ff86c1f3</color>
                    <colorMode>normal</colorMode>
                    <width>3</width>
                </LineStyle>
            </Style>
            <name>Flight 589</name>
            <Placemark id="14">
                <name>Turn 589</name>
                <styleUrl>#15</styleUrl>
                <LineString id="13">
                    <altitudeMode>absolute</altitudeMode>
                    <coordinates>2.09544698,41.28959118,8.288119253494152e-05 2.09269302,41.28861133,4.7277660690656645e-05 2.08968179,41.28759953,-1.553446104168888e-05 2.08625932,41.28638332,-0.00011299550894878921 2.08267095,41.28512411,15.239752773785876 2.07917843,41.2836913,45.71959940056631 2.07546881,41.2823906,91.43939470670513 2.07193889,41.2810884,137.15917042340436 2.06829737,41.27971883,182.8789074380614 2.06483162,41.27821599,236.21863714550662 2.06212712,41.27579872,281.93847767946505 2.05968488,41.27335865,320.0383441163532 2.05761851,41.27070734,350.51826995491655 2.05643375,41.26767317,388.61834547838555 2.05558956,41.26437138,426.7185067636286 2.0549177,41.26104317,464.8187174192144 2.05418002,41.25757807,495.2989577812544 2.05354593,41.25413158,533.3992375372527 2.05279026,41.25056743,563.8795410261981 2.05190101,41.24680914,594.359878739389 2.05106522,41.24306498,617.2202533115869 2.05012981,41.23918409,647.7006646504859 2.04917005,41.2351971,678.1811220796071 2.04827255,41.23122089,716.2816226764093 2.04728355,41.22710001,769.6221700590238 2.04632717,41.22299143,822.9627579914259 2.04527847,41.21878801,868.6833868126686 2.04427037,41.21459451,922.0240595010139 2.04319636,41.21023089,982.9847969320613 2.04216197,41.20594158,1043.9455665477512 2.04116458,41.20166023,1112.5263818335852 2.03980379,41.19729406,1173.4871945546126 2.03733474,41.19324014,1234.447765734326 2.03457107,41.18935269,1287.7882581921908 2.03124564,41.18566927,1348.748596922167 2.02708877,41.18242624,1402.0886362794763 2.02240288,41.17955873,1470.6684245167137 2.01752965,41.1767943,1539.2480946575845 2.01276058,41.17408758,1600.2077243679366 2.00788914,41.17123647,1668.7873241874333 2.00314561,41.16842506,1729.7468992123831 1.99846919,41.16554011,1798.326472789072</coordinates>
                </LineString>
            </Placemark>
        </Folder>
        <Folder id="17">
            <Style id="20">
                <LineStyle id="21">
                    <color>ff663b45</color>
                    <colorMode>normal</colorMode>
                    <width>3</width>
                </LineStyle>
            </Style>
            <name>Flight 604</name>
            <Placemark id="19">
                <name>Turn 604</name>
                <styleUrl>#20</styleUrl>
                <LineString id="18">
                    <altitudeMode>absolute</altitudeMode>
                    <coordinates>2.09614608,41.28978915,7.620090402499114 2.09337761,41.2888413,7.620058549403399 2.09037413,41.28779022,7.6200024921645255 2.08699148,41.28660468,-8.835457548108745e-05 2.08324476,41.28525622,7.6197787931315695 2.07965243,41.28388657,53.33962230732232 2.07575366,41.28274322,114.29940172778198 2.07207055,41.28138894,167.63916882782968 2.06267082,41.27161677,365.7588079901199 2.06169045,41.26852675,396.23892147062855 2.06088822,41.26539444,426.7190792057258 2.06038645,41.26206416,457.1993120342954 2.0601293,41.25867706,487.6796052656541 2.05989254,41.25511577,510.53994643410664 2.05980403,41.2515652,541.0203343399968 2.05968196,41.24786487,563.8807665517521 2.05963078,41.24412831,594.3612448732339 2.05958502,41.24029857,624.8417703159148 2.05952813,41.23637795,655.3223431023812 2.05951564,41.23240262,670.5629661654764 2.05951149,41.22826878,708.6636557378794 2.05950211,41.22410412,746.7643909627843 2.05945733,41.21992498,800.1051664924265 2.05933289,41.21572734,853.4459777205982 2.05906895,41.21145216,906.7868303283664 2.05878008,41.20720815,967.7477166303967 2.05851719,41.20304217,1028.7086308311275 2.0582354,41.19883231,1097.2895948035466 2.057971,41.19462411,1158.250602443875 2.05767368,41.19043452,1219.211643223456 2.05741953,41.18617654,1280.1727498503399 2.05720995,41.18198626,1341.1338862953783 2.05699642,41.17780541,1402.09506143687 2.05680182,41.17362842,1463.0562796315453 2.05664803,41.16938292,1524.017566247697 2.05670407,41.16529987,1577.3588705739357 2.05726261,41.16106509,1630.7003296859903 2.05943055,41.15690323,1684.042004782931 2.06124543,41.15324152,1737.38349148076 2.06440221,41.1496748,1783.105112908431</coordinates>
                </LineString>
            </Placemark>
        </Folder>
        <Folder id="22">
            <Style id="25">
                <LineStyle id="26">
                    <color>ff6879d8</color>
                    <colorMode>normal</colorMode>
                    <width>3</width>
                </LineStyle>
            </Style>
            <name>Flight 607</name>
            <Placemark id="24">
                <name>Turn 607</name>
                <styleUrl>#25</styleUrl>
                <LineString id="23">
                    <altitudeMode>absolute</altitudeMode>
                    <coordinates>2.09751099,41.29010603,7.620102614932449 2.09494967,41.2893322,7.620080312550027 2.09200475,41.28831336,7.620037164373758 2.08865451,41.2871974,-4.0483662291411124e-05 2.08526001,41.28599527,30.479855054318737 2.08177179,41.28478797,83.81971684659212 2.07829414,41.28356444,137.1595489212926 2.07500827,41.2822412,190.4993693097572 2.07214211,41.28039403,243.83922384702745 2.0697858,41.27812979,297.17913219425543 2.06793263,41.27556257,335.27910335744076 2.06694834,41.27266641,373.37918963489074 2.06606879,41.26960051,411.4793161454805 2.06546277,41.26643991,449.5794988753574 2.06487454,41.26310005,487.67972197993527 2.06446207,41.25981804,525.7799837316048 2.06403081,41.25628889,556.2602941337587 2.06368283,41.25271239,594.3606482363078 2.06341414,41.24907385,624.8410483797778 2.06309012,41.24521112,655.3215029991002 2.06284026,41.24129268,685.8020088560677 2.06256015,41.23721662,723.9025715366948 2.06229863,41.23310669,769.6231812630315 2.06197117,41.22890157,807.7238394200612 2.0616002,41.2245256,845.824565175278 2.0612646,41.22015732,876.305338543486 2.06084658,41.21563117,914.4061794939981 2.06041857,41.21105695,952.5070778437818 2.0599521,41.20629548,982.9880626659962 2.05952441,41.20147708,1021.0891193499372 2.05904493,41.19654788,1059.1902520568106 2.05854493,41.19151127,1112.531468005189 2.05802631,41.186564,1173.4927176394506 2.05721684,41.18148409,1234.4540257346969 2.05529026,41.17657855,1295.415195612354 2.05300748,41.17182458,1363.9963169009927 2.0504634,41.16706108,1432.5774423898974 2.04736174,41.16242479,1501.1584757896242 2.04425941,41.15787021,1577.3595057881055 2.04113727,41.15338131,1638.320531275367 2.03795822,41.14870596,1699.2816345550777 2.03481394,41.144096,1760.2427439060782 2.03167928,41.13941938,1821.203903807409</coordinates>
                </LineString>
            </Placemark>
        </Folder>
        <Folder id="27">
            <Style id="30">
                <LineStyle id="31">
                    <color>ff9c778f</color>
                    <colorMode>normal</colorMode>
                    <width>3</width>
                </LineStyle>
            </Style>
            <name>Flight 619</name>
            <Placemark id="29">
                <name>Turn 619</name>
                <styleUrl>#30</styleUrl>
                <LineString id="28">
                    <altitudeMode>absolute</altitudeMode>
                    <coordinates>2.0951702,41.28939976,8.263997998040545e-05 2.09238834,41.28852016,4.1660854063393207e-05 2.08930075,41.28740488,-2.305861636278033e-05 2.08579078,41.28616952,-0.00012703426588776985 2.08214471,41.28487232,7.619732516642665 2.07820499,41.28351332,53.33954228622151 2.07450302,41.28223061,106.67932794752882 2.0708142,41.28089379,167.639082534271 2.06713823,41.27948126,228.598807776901 2.06405811,41.27752204,281.93859343541425 2.06182124,41.27500416,335.27849203262633 2.05977365,41.2724372,373.3784169537813 2.05860431,41.2692819,403.8584979432378 2.05786321,41.26626294,434.33864147193935 2.05738731,41.26296262,457.19886348697617 2.05719506,41.25958814,487.67915433973656 2.057077,41.25609772,510.5394935244714 2.0571348,41.25260491,533.3998843063416 2.0571595,41.2489014,556.2603255677584 2.05734274,41.24519796,571.5008193046037 2.05744787,41.24130755,594.3613621230244 2.05755452,41.23733427,617.2219534987428 2.05770431,41.23334156,655.3225914106821 2.05779273,41.2292061,693.4232836308339 2.05782895,41.22506798,739.1440107187187 2.05784089,41.2209814,792.4847660507706 2.05783499,41.2169381,853.4455506002191 2.0577897,41.21285704,906.7863768096462 2.0577496,41.20879136,952.5072398156844 2.05770072,41.2047545,1005.8481348582327 2.05794785,41.20071682,1043.9491057552566 2.05905304,41.19670806,1089.67021444699 2.06137117,41.19274527,1135.3914886449952 2.06403911,41.18926416,1188.7326956191503 2.06731133,41.18601771,1242.073907592644 2.07105351,41.18305938,1303.0350757305912 2.07503359,41.18029203,1356.3761884800447 2.07904164,41.17761923,1409.7172487476048 2.08307119,41.17497114,1463.0582742880083 2.0870373,41.1722181,1516.3992998740464 2.09106454,41.16959431,1554.5002600534092 2.09509875,41.16698284,1592.6011868904898 2.09934217,41.16435554,1607.8420899380308 2.10389091,41.16180043,1615.4629328119408 2.10873195,41.15934405,1630.7036941419815 2.11388387,41.15680247,1653.56442246124 2.11917922,41.15437416,1684.0450446534392 2.12460427,41.15185671,1714.5256245980513 2.13015183,41.14925043,1745.006158371413 2.13578988,41.14675054,1775.486573253993 2.14156335,41.14397847,1821.206999636436</coordinates>
                </LineString>
            </Placemark>
        </Folder>
        <Folder id="32">
            <Style id="35">
                <LineStyle id="36">
                    <color>ff77d793</color>
                    <colorMode>normal</colorMode>
                    <width>3</width>
                </LineStyle>
            </Style>
            <name>Flight 624</name>
            <Placemark id="34">
                <name>Turn 624</name>
                <styleUrl>#35</styleUrl>
                <LineString id="33">
                    <altitudeMode>absolute</altitudeMode>
                    <coordinates>2.0970151,41.29009728,9.584427186583033e-05 2.09458306,41.2893224,7.274653995364969e-05 2.09183096,41.28831888,3.175810081064112e-05 2.08867168,41.28718772,-3.952346868626496e-05 2.08521461,41.28602679,-0.00014918111742083114 2.08146008,41.28464536,7.619701705696952 2.07767339,41.28336805,53.33951182079643 2.07394162,41.28202087,106.67929279848234 2.0703204,41.28072507,160.01904608329053 2.06669702,41.27925934,213.3587744636009 2.06345618,41.27744873,266.6985315426174 2.06066139,41.27522495,320.0383438676913 2.05817885,41.2727143,358.1382030877615 2.0565163,41.26990939,388.61818768998484 2.05523179,41.26685435,419.09825341227145 2.05443597,41.26368956,449.57841251175415 2.05357415,41.26038108,472.4385978773859 2.05272888,41.2570495,495.2988117675642 2.05181603,41.253577,525.7790562274207 2.05093644,41.25005288,548.6393376785368 2.0500766,41.24640079,563.879665490946 2.04922611,41.24263876,586.7400396021399 2.04843609,41.2388124,609.6004639041705 2.04759564,41.23481954,632.460939366549 2.04680656,41.23076486,655.3214690328343 2.04600183,41.22659584,670.5620533678069 2.04517485,41.22231909,685.8026936426777 2.04426048,41.21782128,716.2834050676862 2.04342632,41.21333491,769.6241740678297 2.04261025,41.20886133,815.3449891275174 2.04174763,41.20428708,868.6858653480347 2.04085989,41.19974658,929.6467772176672 2.03962501,41.19511927,982.9876962119695 2.03694502,41.19091849,1043.9482865098755 2.03420496,41.18687601,1097.2888439284234 2.03037547,41.18328128,1150.6290737151287 2.02599271,41.18003981,1203.969072105419 2.02102081,41.17718457,1257.308792260288 2.01581974,41.17446092,1318.2683662598538 2.01062105,41.17176388,1363.9878730431801 2.00554697,41.16905896,1417.3273572772712 2.00038077,41.16620022,1470.6668083357874 1.99530874,41.16332912,1524.0062356576836 1.99009277,41.16069453,1569.7254846732656 1.98441334,41.15852386,1600.204360562005 1.9774704,41.15740749,1630.6823500169612 1.9713859,41.156502,1661.1604529088702 1.9642888,41.15670962,1699.2576748906154 1.95750018,41.15770231,1737.3546130303748 1.95089138,41.15933687,1783.0712839820064 1.94431484,41.16121105,1828.7877723012755</coordinates>
                </LineString>
            </Placemark>
        </Folder>
        <Folder id="37">
            <Style id="40">
                <LineStyle id="41">
                    <color>ff4d5ddb</color>
                    <colorMode>normal</colorMode>
                    <width>3</width>
                </LineStyle>
            </Style>
            <name>Flight 640</name>
            <Placemark id="39">
                <name>Turn 640</name>
                <styleUrl>#40</styleUrl>
                <LineString id="38">
                    <altitudeMode>absolute</altitudeMode>
                    <coordinates>2.09562116,41.28953316,8.762907517227385e-05 2.0931173,41.2887282,5.497876730658888e-05 2.09031131,41.28774481,1.5441328781247144e-06 2.08712975,41.28660454,-8.24667539759717e-05 2.08374087,41.28544487,-0.00020215009054708755 2.08007786,41.28420914,15.239635202688978 2.07650562,41.28297574,53.33944531318679 2.07290122,41.28172642,91.43922085019544 2.06928192,41.2804304,129.53896404702675 2.06568243,41.279146,167.63867548389436 2.06197596,41.27777628,205.7383464957732 2.05857803,41.27601416,259.0780443119383 2.05574015,41.27401637,304.79780526996825 2.05356592,41.27148614,342.8976808822486 2.05210095,41.26864173,365.757682655322 2.05140228,41.26560672,380.997823987141 2.05128427,41.26213596,396.23810936756183 2.05131623,41.25861528,411.4784498487513 2.05135161,41.2551436,434.3388151719852 2.05108819,41.25145954,457.1991906457051 2.05077641,41.24772366,472.43959734020797 2.05035184,41.24388896,495.3000338686445 2.04987922,41.23998518,518.1605076192509 2.04933666,41.23601973,548.6410161733265 2.04873752,41.23197375,579.1215658192184 2.04810241,41.22790762,609.602151358285 2.04733647,41.22378479,647.7027653743494 2.04641872,41.21967978,693.423391076592 2.04543688,41.21554622,739.1440500028393 2.04440759,41.21144695,784.8647319057458 2.04340143,41.20735308,830.5854535463243 2.04236945,41.20328061,876.3062029934046 2.04126967,41.19916457,914.4069875774751 2.03993343,41.19507036,960.1277623164815 2.03748096,41.19120451,998.2283093322662 2.03455971,41.18764625,1043.9487029153888 2.03134623,41.18425776,1082.04899667289 2.02734817,41.18136895,1120.1489808541023 2.02282486,41.17876534,1158.2487389232233 2.01806392,41.17649756,1188.7282988656232 2.01278626,41.17476575,1211.587514908825 2.00712055,41.17378122,1234.44632833754 2.00098159,41.17362617,1257.3046658464325 1.99508646,41.17417191,1280.1627592212117 1.98910964,41.17504869,1303.0206293980098 1.98306992,41.17618496,1325.878301850362 1.97686247,41.17732065,1341.1158140817538 1.97064838,41.1784601,1363.9732166489216 1.96428866,41.17950866,1386.8304818199306 1.95779727,41.18045278,1409.6876105978101 1.95121795,41.18134436,1432.5445990346902 1.94451586,41.18221098,1463.0214187512463 1.93783317,41.18311873,1493.4981102880122 1.93106215,41.18396496,1531.5946513304395 1.92413432,41.18461865,1592.551038313316 1.91731235,41.18543197,1668.7473024434587 1.91054033,41.18615316,1767.8034889197575</coordinates>
                </LineString>
            </Placemark>
        </Folder>
        <Folder id="42">
            <Style id="45">
                <LineStyle id="46">
                    <color>ff4dc899</color>
                    <colorMode>normal</colorMode>
                    <width>3</width>
                </LineStyle>
            </Style>
            <name>Flight 657</name>
            <Placemark id="44">
                <name>Turn 657</name>
                <styleUrl>#45</styleUrl>
                <LineString id="43">
                    <altitudeMode>absolute</altitudeMode>
                    <coordinates>2.09552114,41.28949504,8.67946101186876e-05 2.09293131,41.28865798,5.219970065501016e-05 2.08987497,41.2875764,-8.086674174159778e-06 2.08642547,41.28636421,-0.00010494143106578593 2.08280026,41.28512361,-0.00024060626352873047 2.07889473,41.28381723,45.71957583437915 2.07519064,41.28252764,99.05936795720262 2.07147823,41.28120149,152.39912602248975 2.0677765,41.27980796,213.358853726605 2.06471484,41.27761749,259.07865769776953 2.06158564,41.2755002,312.4184345292077 2.05948118,41.27276515,350.5183592547847 2.05775394,41.26965424,380.99836385902336 2.05648565,41.26625548,411.4784658628427 2.05540228,41.26281065,441.95861930175045 2.05444657,41.25918762,472.43883222981844 2.05343376,41.2554257,502.9190806338265 2.05240885,41.25156202,518.1593692943649 2.05138536,41.2476086,548.6397023388337 2.05039204,41.24354632,594.3600891223709 2.04950612,41.23948625,647.7005282657416 2.04864957,41.23538656,708.6610151756613 2.04782786,41.23130459,762.001542178144 2.0469309,41.22713881,815.3421097285487 2.04607527,41.22297849,861.0627216323186 2.04520637,41.21885598,914.4033634491816 2.04425886,41.21463879,967.7440500375164 2.04331691,41.21043835,1021.0847738303273 2.04227717,41.20612414,1051.5655453824577 2.04112245,41.20164138,1074.4263777518713 2.03974782,41.19717455,1097.2872115601788 2.03715534,41.19291428,1120.1478123012796 2.03451813,41.18852619,1143.0084627656938 2.03026096,41.18470796,1173.4886555632213 2.02613703,41.18086256,1211.5888684381503 2.02098194,41.17763047,1249.6886524129427 2.01554058,41.17455702,1303.02826841521 2.00997924,41.17157249,1356.3677641222628 2.00437831,41.16857078,1409.7071875773079 1.99891433,41.16555437,1470.6665885101231 1.99337151,41.16229487,1524.0059816422374 1.98804276,41.15920099,1584.9653267208425 1.98253481,41.15590759,1645.9246217687958 1.97713567,41.1526619,1706.8838783270496 1.97175954,41.14949548,1760.2230569168935 1.96629079,41.1461664,1821.182201585119</coordinates>
                </LineString>
            </Placemark>
        </Folder>
    </Document>
</kml>
